JILIN-1                 
1 40961U 15057D   26193.53323068  .00000411  00000+0  63247-4 0  9990
2 40961  97.6518 191.6429 0016968 175.4423 184.6946 14.78198870579356
JILIN-1 03              
1 41914U 17002B   26193.53089220  .00008861  00000+0  20834-3 0  9991
2 41914  97.1946 200.2681 0007955  86.5341 273.6817 15.42187379525765
JILIN-1 04              
1 43022U 17074A   26193.51164972  .00008592  00000+0  19636-3 0  9997
2 43022  97.4874 303.8124 0005263 107.5038 252.6785 15.43083838478178
JILIN-1 05              
1 43023U 17074B   26193.56018020  .00004807  00000+0  14735-3 0  9995
2 43023  97.4880 300.0654 0006339 131.9121 228.2663 15.34258650477890
JILIN-1 06              
1 43024U 17074C   26193.53559206  .00003567  00000+0  11093-3 0  9995
2 43024  97.4806 297.0163 0007930 142.1497 218.0304 15.33976951477728
JILIN-1 07              
1 43159U 18008E   26193.51778301  .00005321  00000+0  15824-3 0  9995
2 43159  97.1766 212.7763 0007019 339.4055  20.6905 15.35136003468887
JILIN-1 08              
1 43160U 18008F   26193.53581600  .00003692  00000+0  11457-3 0  9990
2 43160  97.1802 212.0818 0005625   2.8407 357.2867 15.33991368468839
JILIN-1 09              
1 43943U 19005B   26193.51476163  .00002589  00000+0  12088-3 0  9997
2 43943  97.4747 288.2646 0002552  41.8831 318.2599 15.20727128412995
JILIN-1 10              
1 43946U 19005E   26193.50567735  .00003507  00000+0  13924-3 0  9996
2 43946  97.4797 292.3151 0008316 178.8501 181.2757 15.25988612413176
