{"fetched_at":"2026-07-12T17:32:50.781Z","source":"https://celestrak.org/NORAD/elements/gp.php?NAME=JILIN&FORMAT=JSON","constellation":"jilin-1-early","records":[{"OBJECT_NAME":"JILIN-1","OBJECT_ID":"2015-057D","EPOCH":"2026-07-12T12:47:51.130752","CLASSIFICATION_TYPE":"U","MEAN_MOTION":14.7819887,"ECCENTRICITY":0.0016968,"INCLINATION":97.6518,"RA_OF_ASC_NODE":191.6429,"ARG_OF_PERICENTER":175.4423,"MEAN_ANOMALY":184.6946,"EPHEMERIS_TYPE":0,"NORAD_CAT_ID":40961,"ELEMENT_SET_NO":999,"REV_AT_EPOCH":57935,"BSTAR":0.000063247,"MEAN_MOTION_DOT":0.00000411,"MEAN_MOTION_DDOT":0},{"OBJECT_NAME":"JILIN-1 03","OBJECT_ID":"2017-002B","EPOCH":"2026-07-12T12:44:29.086080","CLASSIFICATION_TYPE":"U","MEAN_MOTION":15.42187379,"ECCENTRICITY":0.0007955,"INCLINATION":97.1946,"RA_OF_ASC_NODE":200.2681,"ARG_OF_PERICENTER":86.5341,"MEAN_ANOMALY":273.6817,"EPHEMERIS_TYPE":0,"NORAD_CAT_ID":41914,"ELEMENT_SET_NO":999,"REV_AT_EPOCH":52576,"BSTAR":0.00020834,"MEAN_MOTION_DOT":0.00008861,"MEAN_MOTION_DDOT":0},{"OBJECT_NAME":"JILIN-1 04","OBJECT_ID":"2017-074A","EPOCH":"2026-07-12T12:16:46.535808","CLASSIFICATION_TYPE":"U","MEAN_MOTION":15.43083838,"ECCENTRICITY":0.0005263,"INCLINATION":97.4874,"RA_OF_ASC_NODE":303.8124,"ARG_OF_PERICENTER":107.5038,"MEAN_ANOMALY":252.6785,"EPHEMERIS_TYPE":0,"NORAD_CAT_ID":43022,"ELEMENT_SET_NO":999,"REV_AT_EPOCH":47817,"BSTAR":0.00019636,"MEAN_MOTION_DOT":0.00008592,"MEAN_MOTION_DDOT":0},{"OBJECT_NAME":"JILIN-1 05","OBJECT_ID":"2017-074B","EPOCH":"2026-07-12T13:26:39.569280","CLASSIFICATION_TYPE":"U","MEAN_MOTION":15.3425865,"ECCENTRICITY":0.0006339,"INCLINATION":97.488,"RA_OF_ASC_NODE":300.0654,"ARG_OF_PERICENTER":131.9121,"MEAN_ANOMALY":228.2663,"EPHEMERIS_TYPE":0,"NORAD_CAT_ID":43023,"ELEMENT_SET_NO":999,"REV_AT_EPOCH":47789,"BSTAR":0.00014735,"MEAN_MOTION_DOT":0.00004807,"MEAN_MOTION_DDOT":0},{"OBJECT_NAME":"JILIN-1 06","OBJECT_ID":"2017-074C","EPOCH":"2026-07-12T12:51:15.153984","CLASSIFICATION_TYPE":"U","MEAN_MOTION":15.33976951,"ECCENTRICITY":0.000793,"INCLINATION":97.4806,"RA_OF_ASC_NODE":297.0163,"ARG_OF_PERICENTER":142.1497,"MEAN_ANOMALY":218.0304,"EPHEMERIS_TYPE":0,"NORAD_CAT_ID":43024,"ELEMENT_SET_NO":999,"REV_AT_EPOCH":47772,"BSTAR":0.00011093,"MEAN_MOTION_DOT":0.00003567,"MEAN_MOTION_DDOT":0},{"OBJECT_NAME":"JILIN-1 07","OBJECT_ID":"2018-008E","EPOCH":"2026-07-12T12:25:36.452064","CLASSIFICATION_TYPE":"U","MEAN_MOTION":15.35136003,"ECCENTRICITY":0.0007019,"INCLINATION":97.1766,"RA_OF_ASC_NODE":212.7763,"ARG_OF_PERICENTER":339.4055,"MEAN_ANOMALY":20.6905,"EPHEMERIS_TYPE":0,"NORAD_CAT_ID":43159,"ELEMENT_SET_NO":999,"REV_AT_EPOCH":46888,"BSTAR":0.00015824,"MEAN_MOTION_DOT":0.00005321,"MEAN_MOTION_DDOT":0},{"OBJECT_NAME":"JILIN-1 08","OBJECT_ID":"2018-008F","EPOCH":"2026-07-12T12:51:34.502400","CLASSIFICATION_TYPE":"U","MEAN_MOTION":15.33991368,"ECCENTRICITY":0.0005625,"INCLINATION":97.1802,"RA_OF_ASC_NODE":212.0818,"ARG_OF_PERICENTER":2.8407,"MEAN_ANOMALY":357.2867,"EPHEMERIS_TYPE":0,"NORAD_CAT_ID":43160,"ELEMENT_SET_NO":999,"REV_AT_EPOCH":46883,"BSTAR":0.00011457,"MEAN_MOTION_DOT":0.00003692,"MEAN_MOTION_DDOT":0},{"OBJECT_NAME":"JILIN-1 09","OBJECT_ID":"2019-005B","EPOCH":"2026-07-12T12:21:15.404832","CLASSIFICATION_TYPE":"U","MEAN_MOTION":15.20727128,"ECCENTRICITY":0.0002552,"INCLINATION":97.4747,"RA_OF_ASC_NODE":288.2646,"ARG_OF_PERICENTER":41.8831,"MEAN_ANOMALY":318.2599,"EPHEMERIS_TYPE":0,"NORAD_CAT_ID":43943,"ELEMENT_SET_NO":999,"REV_AT_EPOCH":41299,"BSTAR":0.00012088,"MEAN_MOTION_DOT":0.00002589,"MEAN_MOTION_DDOT":0},{"OBJECT_NAME":"JILIN-1 10","OBJECT_ID":"2019-005E","EPOCH":"2026-07-12T12:08:10.523040","CLASSIFICATION_TYPE":"U","MEAN_MOTION":15.25988612,"ECCENTRICITY":0.0008316,"INCLINATION":97.4797,"RA_OF_ASC_NODE":292.3151,"ARG_OF_PERICENTER":178.8501,"MEAN_ANOMALY":181.2757,"EPHEMERIS_TYPE":0,"NORAD_CAT_ID":43946,"ELEMENT_SET_NO":999,"REV_AT_EPOCH":41317,"BSTAR":0.00013924,"MEAN_MOTION_DOT":0.00003507,"MEAN_MOTION_DDOT":0}]}
